OBJECT_NAME,OBJECT_ID,EPOCH,MEAN_MOTION,ECCENTRICITY,INCLINATION,RA_OF_ASC_NODE,ARG_OF_PERICENTER,MEAN_ANOMALY,EPHEMERIS_TYPE,CLASSIFICATION_TYPE,NORAD_CAT_ID,ELEMENT_SET_NO,REV_AT_EPOCH,BSTAR,MEAN_MOTION_DOT,MEAN_MOTION_DDOT
ONEWEB-0295,2021-075K,2026-06-26T05:22:47.011872,13.17649277,.00021916,87.9132,4.0711,86.9209,273.2173,0,U,49084,999,23478,.20178229E-4,.21E-6,0
ONEWEB-0296,2021-075L,2026-06-26T05:31:04.269792,13.12442961,.00021723,87.8954,348.8682,91.5838,268.5539,0,U,49085,999,23576,.12772513E-2,.472E-5,0
ONEWEB-0297,2021-075M,2026-06-26T04:25:10.976448,13.12441052,.00019267,87.8941,348.8867,90.1229,270.0120,0,U,49086,999,23636,-.69907722E-3,-.239E-5,0
ONEWEB-0298,2021-075N,2026-06-26T05:29:03.890400,13.17648305,.00018507,87.9134,4.0686,85.7534,274.3809,0,U,49087,999,23481,-.72931377E-4,-.15E-6,0
ONEWEB-0299,2021-075P,2026-06-26T05:31:16.572288,13.17650458,.00019989,87.9143,4.0494,85.9717,274.1643,0,U,49088,999,23479,-.30692874E-4,.1E-7,0
ONEWEB-0300,2021-075Q,2026-06-26T04:14:12.382944,13.12440743,.000167,87.8951,348.8686,80.7286,279.4032,0,U,49089,999,23638,.19761519E-3,.84E-6,0
ONEWEB-0301,2021-075R,2026-06-26T00:11:28.628736,13.12441759,.00015593,87.8949,348.9003,84.5846,275.5460,0,U,49090,999,23572,.12006869E-2,.445E-5,0
ONEWEB-0302,2021-075S,2026-06-26T05:21:17.919648,13.12444981,.0002068,87.8953,348.8697,98.4591,261.6772,0,U,49091,999,23573,.72758942E-3,.274E-5,0
ONEWEB-0304,2021-075T,2026-06-26T06:44:10.552416,13.17650103,.00020177,87.9133,4.0608,87.6427,272.4936,0,U,49092,999,23477,.10480402E-3,.54E-6,0
ONEWEB-0305,2021-075U,2026-06-26T06:34:27.652224,13.17649386,.00022104,87.9141,4.0472,83.2048,276.9335,0,U,49093,999,23480,-.99007238E-4,-.26E-6,0
ONEWEB-0308,2021-075V,2026-06-26T05:11:31.894368,13.12445057,.00018159,87.8953,348.8631,92.5057,267.6279,0,U,49094,999,23574,.31862886E-4,.24E-6,0
ONEWEB-0309,2021-075W,2026-06-26T06:39:19.455264,13.17648900,.00021834,87.9131,4.0542,100.8071,259.3307,0,U,49095,999,23477,.35626118E-4,.27E-6,0
ONEWEB-0310,2021-075X,2026-06-26T05:33:30.423168,13.12442309,.0001815,87.8943,348.8808,93.0075,267.1262,0,U,49096,999,23637,.12695901E-2,.469E-5,0
ONEWEB-0311,2021-075Y,2026-06-26T04:59:41.163648,13.17651072,.00021198,87.9135,4.0677,78.8039,281.3331,0,U,49097,999,23481,.72881806E-4,.41E-6,0
ONEWEB-0312,2021-075Z,2026-06-26T05:21:32.967072,13.17650695,.00021748,87.9131,4.0750,88.6402,271.4979,0,U,49098,999,23479,-.80606127E-3,-.3E-5,0
ONEWEB-0313,2021-075AA,2026-06-26T05:28:39.328608,13.17649882,.00019734,87.9129,4.0797,86.7177,273.4181,0,U,49099,999,23478,.50719375E-4,.33E-6,0
ONEWEB-0314,2021-075AB,2026-06-26T06:29:36.844512,13.17649237,.00022515,87.9141,4.0450,87.8650,272.2739,0,U,49100,999,23476,-.4345272E-4,-.4E-7,0
ONEWEB-0315,2021-075AC,2026-06-26T04:54:27.123840,13.12443044,.00019282,87.8950,348.8510,80.8880,279.2467,0,U,49101,999,23635,-.14149998E-2,-.496E-5,0
ONEWEB-0316,2021-075AD,2026-06-26T04:30:51.165216,13.18690141,.0001917,87.9171,333.6648,95.1174,265.0177,0,U,49102,999,23839,-.8061916E-3,-.305E-5,0
ONEWEB-0317,2021-075AE,2026-06-26T04:59:19.963680,13.12444887,.00018862,87.8953,348.8744,115.1684,244.9640,0,U,49103,999,23637,-.67060919E-3,-.229E-5,0
ONEWEB-0318,2021-075AF,2026-06-26T04:26:01.542912,13.18691413,.0001885,87.9175,333.6673,86.1778,273.9569,0,U,49104,999,23835,-.12624914E-1,-.4962E-4,0
ONEWEB-0319,2021-075AG,2026-06-26T05:02:07.266912,13.17649798,.00020113,87.9133,4.0726,74.1787,285.9567,0,U,49105,999,23479,.55983468E-4,.35E-6,0
ONEWEB-0323,2021-075AH,2026-06-26T04:32:30.036192,13.12440992,.00021354,87.8953,348.8590,78.4559,281.6809,0,U,49106,999,23573,-.10395017E-2,-.361E-5,0
ONEWEB-0329,2021-075AJ,2026-06-26T05:14:16.476000,13.17649772,.00020045,87.9133,4.0716,87.6482,272.4879,0,U,49107,999,23477,.90228406E-4,.48E-6,0
ONEWEB-0330,2021-075AK,2026-06-26T08:00:01.999872,13.19162576,.00021434,87.9133,4.0664,94.1825,18.4333,0,U,49108,999,484,.78224154E-1,.31177E-3,0
ONEWEB-0292,2021-083A,2026-06-26T03:42:29.088576,13.13461338,.00017446,87.8960,318.4523,93.4629,266.6700,0,U,49186,999,23210,.3291549E-2,.1215E-4,0
ONEWEB-0303,2021-083B,2026-06-26T04:21:10.414656,13.18686797,.00018946,87.9172,333.6666,89.8270,270.3079,0,U,49187,999,23116,-.7363669E-5,.1E-6,0
ONEWEB-0306,2021-083C,2026-06-26T04:06:35.810784,13.18686785,.00018847,87.9175,333.6569,101.6066,258.5278,0,U,49188,999,23120,-.9705916E-4,-.25E-6,0
ONEWEB-0307,2021-083D,2026-06-26T07:13:21.798336,13.13470581,.00019279,87.8960,318.4207,94.5965,265.5384,0,U,49189,999,23212,.98449012E-3,.372E-5,0
ONEWEB-0320,2021-083E,2026-06-26T04:35:44.382624,13.18686082,.00018285,87.9168,333.6701,96.3075,263.8266,0,U,49190,999,23116,-.10317006E-3,-.28E-6,0
ONEWEB-0321,2021-083F,2026-06-26T07:00:16.342848,13.20772951,.00019993,87.9196,272.6206,108.0610,252.0741,0,U,49191,999,23803,.1730928E-3,.83E-6,0
ONEWEB-0322,2021-083G,2026-06-26T03:27:53.219808,13.13471738,.00015379,87.8959,318.4521,109.4390,250.6905,0,U,49192,999,23209,.10055011E-2,.38E-5,0
ONEWEB-0324,2021-083H,2026-06-26T03:56:54.037248,13.18685315,.00020291,87.9178,333.6638,97.0109,263.1254,0,U,49193,999,23118,.9997611E-5,.17E-6,0
ONEWEB-0325,2021-083J,2026-06-26T04:01:45.342624,13.18686183,.00017747,87.9166,333.6705,93.2116,266.9219,0,U,49194,999,23119,.20509787E-3,.94E-6,0
ONEWEB-0326,2021-083K,2026-06-26T04:23:49.012224,13.18685109,.00018867,87.9176,333.6660,86.0443,274.0904,0,U,49195,999,23118,-.87181383E-4,-.21E-6,0
ONEWEB-0327,2021-083L,2026-06-26T04:23:24.802944,13.18684889,.00017452,87.9168,333.6697,81.9643,278.1687,0,U,49196,999,23120,-.10047558E-3,-.27E-6,0
ONEWEB-0328,2021-083M,2026-06-26T03:13:14.818656,13.13470915,.00019893,87.8970,318.4279,98.8643,261.2711,0,U,49197,999,23207,.12787913E-3,.59E-6,0
ONEWEB-0331,2021-083N,2026-06-26T04:13:52.749408,13.18685706,.00019578,87.9176,333.6612,84.8648,275.2708,0,U,49198,999,23119,.36387025E-3,.156E-5,0
ONEWEB-0333,2021-083P,2026-06-26T03:05:55.870368,13.13470327,.00018206,87.8957,318.4544,97.1230,263.0107,0,U,49199,999,23208,-.48578214E-3,-.165E-5,0
ONEWEB-0334,2021-083Q,2026-06-26T05:31:46.825248,13.20773821,.00017011,87.9194,272.6428,123.8933,236.2362,0,U,49200,999,23798,.68450595E-4,.41E-6,0
ONEWEB-0335,2021-083R,2026-06-25T21:29:31.409952,13.13471621,.00019359,87.8959,318.4981,92.9771,267.1579,0,U,49201,999,23206,-.42302243E-3,-.142E-5,0
ONEWEB-0336,2021-083S,2026-06-25T22:37:48.237888,13.13471893,.00020097,87.8957,318.4839,90.5594,269.5765,0,U,49202,999,23206,-.12447244E-3,-.33E-6,0
ONEWEB-0337,2021-083T,2026-06-25T21:02:30.971904,13.13470137,.00020685,87.8956,318.5033,97.0032,263.1332,0,U,49203,999,23205,-.65194742E-3,-.225E-5,0
ONEWEB-0338,2021-083U,2026-06-26T06:48:07.161408,13.20774576,.00018125,87.9186,272.6353,106.6741,253.4591,0,U,49204,999,23801,.12121249E-3,.62E-6,0
ONEWEB-0339,2021-083V,2026-06-25T21:14:53.481408,13.13471042,.00017872,87.8958,318.4941,107.2284,252.9041,0,U,49205,999,23203,-.75846918E-3,-.264E-5,0
ONEWEB-0340,2021-083W,2026-06-26T03:54:28.660608,13.18686980,.00019792,87.9178,333.6698,91.4552,268.6806,0,U,49206,999,23115,.36082808E-3,.155E-5,0
ONEWEB-0341,2021-083X,2026-06-26T04:04:11.410464,13.18686162,.00023425,87.9167,333.6710,98.5533,261.5865,0,U,49207,999,23117,.20579787E-4,.21E-6,0
ONEWEB-0342,2021-083Y,2026-06-26T06:57:51.340320,13.20771106,.00020115,87.9196,272.6230,103.3199,256.8159,0,U,49208,999,23798,.14485193E-3,.72E-6,0
ONEWEB-0343,2021-083Z,2026-06-26T04:16:20.044992,13.18685761,.00018283,87.9169,333.6681,107.8746,252.2586,0,U,49209,999,23122,.21529547E-3,.98E-6,0
ONEWEB-0344,2021-083AA,2026-06-25T21:07:34.149504,13.13468430,.00022079,87.8952,318.5085,100.2478,259.8900,0,U,49210,999,23203,-.84985595E-3,-.298E-5,0
ONEWEB-0345,2021-083AB,2026-06-25T22:45:05.084928,13.13468021,.00021719,87.8968,318.4777,100.6693,259.4681,0,U,49211,999,23205,-.3493878E-3,-.115E-5,0
ONEWEB-0346,2021-083AC,2026-06-25T22:43:41.378016,13.18686249,.00021147,87.9166,333.7140,76.7541,283.3827,0,U,49212,999,23113,-.12447357E-3,-.36E-6,0
ONEWEB-0348,2021-083AD,2026-06-26T06:43:18.654528,13.20771305,.00024211,87.9198,272.6292,91.2569,268.8841,0,U,49213,999,23801,.33078415E-4,.26E-6,0
ONEWEB-0350,2021-083AE,2026-06-25T21:22:12.012384,13.13470655,.00009494,87.8965,318.4942,120.1908,239.9315,0,U,49214,999,23207,-.76479408E-3,-.267E-5,0
ONEWEB-0351,2021-083AF,2026-06-26T06:33:24.505056,13.20771168,.00023817,87.9197,272.6292,120.6524,239.4844,0,U,49215,999,23797,-.88010655E-4,-.23E-6,0
ONEWEB-0352,2021-083AG,2026-06-25T22:30:28.025568,13.13470299,.00018588,87.8963,318.4902,111.3096,248.8232,0,U,49216,999,23217,-.63690964E-4,-.11E-6,0
ONEWEB-0354,2021-083AH,2026-06-26T07:12:22.798368,13.20772755,.00023939,87.9200,272.6226,95.7582,264.3825,0,U,49217,999,23801,.12208668E-3,.63E-6,0
ONEWEB-0355,2021-083AJ,2026-06-25T21:22:25.027680,13.13470487,.00020191,87.8958,318.5005,103.7504,256.3850,0,U,49218,999,23204,-.75032064E-3,-.261E-5,0
ONEWEB-0357,2021-083AK,2026-06-26T07:07:32.043360,13.20773265,.00020892,87.9198,272.6173,105.6512,254.4852,0,U,49219,999,23801,.14637197E-3,.73E-6,0
ONEWEB-0332,2021-090A,2026-06-26T06:38:22.648128,13.14502159,.00017597,87.8968,287.8976,104.5665,255.5660,0,U,49279,999,22877,.31967801E-4,.25E-6,0
ONEWEB-0347,2021-090B,2026-06-26T06:53:00.419424,13.20771143,.00017645,87.9194,272.6272,103.3306,256.8024,0,U,49280,999,23224,.80751902E-4,.46E-6,0
ONEWEB-0349,2021-090C,2026-06-26T05:49:57.848160,13.20773158,.00020548,87.9198,272.6367,100.2316,259.9049,0,U,49281,999,23102,.19168375E-3,.91E-6,0
ONEWEB-0353,2021-090D,2026-06-26T06:26:57.558336,13.14503137,.00016854,87.8971,287.8950,104.4078,255.7239,0,U,49282,999,22877,-.45543724E-3,-.156E-5,0
ONEWEB-0356,2021-090E,2026-06-26T05:47:30.923232,13.20774230,.00017543,87.9196,272.6303,76.4944,283.6385,0,U,49283,999,23102,.85838396E-4,.48E-6,0
ONEWEB-0358,2021-090F,2026-06-26T06:39:25.200000,13.20581934,.00019081,87.9176,272.6314,94.1580,265.9771,0,U,49284,999,23175,.81484288E-1,.33172E-3,0
